NORAD_CAT_ID,OBJECT_NAME,OBJECT_TYPE,EPOCH,MEAN_MOTION,ECCENTRICITY,INCLINATION,RA_OF_ASC_NODE,ARG_OF_PERICENTER,MEAN_ANOMALY,BSTAR,MEAN_MOTION_DOT,MEAN_MOTION_DDOT,TLE_LINE0,TLE_LINE1,TLE_LINE2,SEMIMAJOR_AXIS,PERIOD,APOGEE,PERIGEE,DECAYED
55403.0,STARLINK-5597,PAYLOAD,2023-02-17 21:14:03,15.6991815,0.0003249,69.9982,41.3446,277.1163,82.9664,9.9268e-06,9.81e-06,0.0,0 STARLINK-5597,1 55403U 23014N   23048.88475902  .00000981  00000-0  99268-5 0  9994,2 55403  69.9982  41.3446 0003249 277.1163  82.9664 15.69918150  3844,6737.268,91.725,361.322,356.944,0.0
55403.0,STARLINK-5597,PAYLOAD,2023-02-18 01:49:18,15.69925213,0.0003299,69.9982,40.8067,272.7077,87.3741,3.9606e-05,4.552e-05,0.0,0 STARLINK-5597,1 55403U 23014N   23049.07590808  .00004552  00000-0  39606-4 0  9996,2 55403  69.9982  40.8067 0003299 272.7077  87.3741 15.69925213  2939,6737.248,91.724,361.336,356.89,0.0
55403.0,STARLINK-5597,PAYLOAD,2023-02-18 14:03:19,15.69949961,0.0003263,69.9983,39.373,271.6672,88.4149,0.00027482,0.00032997,0.0,0 STARLINK-5597,1 55403U 23014N   23049.58564051  .00032997  00000-0  27482-3 0  9995,2 55403  69.9983  39.3730 0003263 271.6672  88.4149 15.69949961  3953,6737.177,91.723,361.241,356.844,0.0
55403.0,STARLINK-5597,PAYLOAD,2023-02-18 18:38:34,15.6994945,0.0003279,69.9984,38.8356,269.9842,90.0978,0.00041512,0.00050052,0.0,0 STARLINK-5597,1 55403U 23014N   23049.77678730  .00050052  00000-0  41512-3 0  9998,2 55403  69.9984  38.8356 0003279 269.9842  90.0978 15.69949450  3040,6737.179,91.723,361.253,356.835,0.0
55403.0,STARLINK-5597,PAYLOAD,2023-02-19 02:17:20,15.69928895,0.0003324,69.9984,37.9394,262.5186,97.5632,0.0004337,0.00052272,0.0,0 STARLINK-5597,1 55403U 23014N   23050.09537368  .00052272  00000-0  43370-3 0  9996,2 55403  69.9984  37.9394 0003324 262.5186  97.5632 15.69928895  3097,6737.237,91.724,361.342,356.863,0.0
55403.0,STARLINK-5597,PAYLOAD,2023-02-19 09:56:05,15.69943008,0.0003306,69.9985,37.0435,262.2723,97.8098,0.00039014,0.00046998,0.0,0 STARLINK-5597,1 55403U 23014N   23050.41395598  .00046998  00000-0  39014-3 0  9997,2 55403  69.9985  37.0435 0003306 262.2723  97.8098 15.69943008  3147,6737.197,91.723,361.289,356.835,0.0
55403.0,STARLINK-5597,PAYLOAD,2023-02-19 14:31:21,15.69922498,0.0003497,69.9986,36.5059,261.1892,98.8908,0.00027489,0.00032969,0.0,0 STARLINK-5597,1 55403U 23014N   23050.60510696  .00032969  00000-0  27489-3 0  9992,2 55403  69.9986  36.5059 0003497 261.1892  98.8908 15.69922498  4119,6737.256,91.724,361.477,356.765,0.0
55403.0,STARLINK-5597,PAYLOAD,2023-02-19 19:06:36,15.69929223,0.0003527,69.9986,35.9684,262.8447,97.2348,0.00047034,0.00056739,0.0,0 STARLINK-5597,1 55403U 23014N   23050.79625674  .00056739  00000-0  47034-3 0  9994,2 55403  69.9986  35.9684 0003527 262.8447  97.2348 15.69929223  3207,6737.236,91.724,361.478,356.725,0.0
55403.0,STARLINK-5597,PAYLOAD,2023-02-20 02:45:22,15.69940246,0.0003514,69.9985,35.073,260.935,99.1448,0.0002079,0.00024877,0.0,0 STARLINK-5597,1 55403U 23014N   23051.11483934  .00024877  00000-0  20790-3 0  9990,2 55403  69.9985  35.0730 0003514 260.9350  99.1448 15.69940246  3252,6737.205,91.723,361.437,356.703,0.0
55403.0,STARLINK-5597,PAYLOAD,2023-02-20 10:24:07,15.69932527,0.0003537,69.9987,34.1766,261.5509,98.5286,0.00039097,0.0004708,0.0,0 STARLINK-5597,1 55403U 23014N   23051.43342393  .00047080  00000-0  39097-3 0  9999,2 55403  69.9987  34.1766 0003537 261.5509  98.5286 15.69932527  3303,6737.227,91.724,361.475,356.709,0.0
55403.0,STARLINK-5597,PAYLOAD,2023-02-20 13:27:38,15.69934606,0.0003572,69.9987,33.8183,263.6238,96.4551,0.00045128,0.00054428,0.0,0 STARLINK-5597,1 55403U 23014N   23051.56085678  .00054428  00000-0  45128-3 0  9999,2 55403  69.9987  33.8183 0003572 263.6238  96.4551 15.69934606  4261,6737.221,91.724,361.493,356.68,0.0
55403.0,STARLINK-5597,PAYLOAD,2023-02-20 18:02:53,15.69927454,0.000354,69.9988,33.2809,265.792,94.2871,0.0004291,0.0005171,0.0,0 STARLINK-5597,1 55403U 23014N   23051.75200778  .00051710  00000-0  42910-3 0  9997,2 55403  69.9988  33.2809 0003540 265.7920  94.2871 15.69927454  3350,6737.242,91.724,361.492,356.722,0.0
55403.0,STARLINK-5597,PAYLOAD,2023-02-21 01:41:38,15.6994925,0.0003555,69.9988,32.385,263.3127,96.7664,0.00028065,0.00033705,0.0,0 STARLINK-5597,1 55403U 23014N   23052.07058877  .00033705  00000-0  28065-3 0  9993,2 55403  69.9988  32.3850 0003555 263.3127  96.7664 15.69949250  3406,6737.179,91.723,361.439,356.649,0.0
55403.0,STARLINK-5597,PAYLOAD,2023-02-21 09:20:24,15.69939452,0.0003388,69.9991,31.489,266.7688,93.312,0.00041214,0.00049669,0.0,0 STARLINK-5597,1 55403U 23014N   23052.38917307  .00049669  00000-0  41214-3 0  9996,2 55403  69.9991  31.4890 0003388 266.7688  93.3120 15.69939452  3455,6737.207,91.723,361.355,356.79,0.0
55403.0,STARLINK-5597,PAYLOAD,2023-02-21 13:55:40,15.69919431,0.0003357,69.9992,30.9515,272.6579,87.4232,0.00040349,0.00048575,0.0,0 STARLINK-5597,1 55403U 23014N   23052.58032515  .00048575  00000-0  40349-3 0  9990,2 55403  69.9992  30.9515 0003357 272.6579  87.4232 15.69919431  4426,6737.265,91.724,361.391,356.868,0.0
55403.0,STARLINK-5597,PAYLOAD,2023-02-21 18:30:55,15.69931932,0.0003403,69.9992,30.4142,271.9024,88.1782,0.00061156,0.00073998,0.0,0 STARLINK-5597,1 55403U 23014N   23052.77147493  .00073998  00000-0  61156-3 0  9999,2 55403  69.9992  30.4142 0003403 271.9024  88.1782 15.69931932  3513,6737.229,91.724,361.386,356.801,0.0
55403.0,STARLINK-5597,PAYLOAD,2023-02-21 21:34:25,15.69943311,0.0003411,69.9991,30.0558,272.0296,88.0509,0.00064518,0.00078153,0.0,0 STARLINK-5597,1 55403U 23014N   23052.89890737  .00078153  00000-0  64518-3 0  9991,2 55403  69.9991  30.0558 0003411 272.0296  88.0509 15.69943311  4477,6737.196,91.723,361.359,356.763,0.0
55403.0,STARLINK-5597,PAYLOAD,2023-02-22 00:37:55,15.69954132,0.0003398,69.999,29.6976,272.0628,88.0179,0.00048538,0.00058632,0.0,0 STARLINK-5597,1 55403U 23014N   23053.02633848  .00058632  00000-0  48538-3 0  9999,2 55403  69.9990  29.6976 0003398 272.0628  88.0179 15.69954132  3551,6737.165,91.722,361.32,356.741,0.0
55403.0,STARLINK-5597,PAYLOAD,2023-02-22 09:48:26,15.69912053,0.0003301,69.999,28.6232,278.748,81.3342,-5.5976e-07,-2.8e-06,0.0,0 STARLINK-5597,1 55403U 23014N   23053.40864377 -.00000280  00000-0 -55976-6 0  9999,2 55403  69.9990  28.6232 0003301 278.7480  81.3342 15.69912053  3619,6737.286,91.725,361.375,356.927,0.0
55403.0,STARLINK-5597,PAYLOAD,2023-02-22 15:55:27,15.69932596,0.0003633,69.9992,27.9062,274.3979,85.6802,0.00022063,0.0002641,0.0,0 STARLINK-5597,1 55403U 23014N   23053.66350956  .00026410  00000-0  22063-3 0  9999,2 55403  69.9992  27.9062 0003633 274.3979  85.6802 15.69932596  3653,6737.227,91.724,361.539,356.644,0.0
55403.0,STARLINK-5597,PAYLOAD,2023-02-23 07:12:58,15.69958004,0.0003737,69.9993,26.1149,275.9934,84.0835,0.00031588,0.00037997,0.0,0 STARLINK-5597,1 55403U 23014N   23054.30067361  .00037997  00000-0  31588-3 0  9990,2 55403  69.9993  26.1149 0003737 275.9934  84.0835 15.69958004  3756,6737.154,91.722,361.537,356.501,0.0
55403.0,STARLINK-5597,PAYLOAD,2023-02-23 20:58:44,15.69943119,0.0002755,69.9997,24.503,284.6904,75.3987,0.00016954,0.00020236,0.0,0 STARLINK-5597,1 55403U 23014N   23054.87412637  .00020236  00000-0  16954-3 0  9990,2 55403  69.9997  24.5030 0002755 284.6904  75.3987 15.69943119  3846,6737.197,91.723,360.918,357.206,0.0
55403.0,STARLINK-5597,PAYLOAD,2023-02-24 07:41:00,15.69962998,0.0003912,69.9995,23.2482,273.2062,86.8686,0.00061584,0.00074626,0.0,0 STARLINK-5597,1 55403U 23014N   23055.32014183  .00074626  00000-0  61584-3 0  9996,2 55403  69.9995  23.2482 0003912 273.2062  86.8686 15.69962998  4857,6737.14,91.722,361.64,356.369,0.0
55403.0,STARLINK-5597,PAYLOAD,2023-02-24 21:26:47,15.69919104,0.000369,69.9996,21.6365,271.3676,88.7097,0.00031063,0.00037298,0.0,0 STARLINK-5597,1 55403U 23014N   23055.89360022  .00037298  00000-0  31063-3 0  9997,2 55403  69.9996  21.6365 0003690 271.3676  88.7097 15.69919104  4941,6737.265,91.724,361.616,356.644,0.0
55403.0,STARLINK-5597,PAYLOAD,2023-02-25 00:30:17,15.69935654,0.0003428,69.9998,21.2786,269.8891,90.1912,0.00023127,0.00027701,0.0,0 STARLINK-5597,1 55403U 23014N   23056.02103241  .00027701  00000-0  23127-3 0  9991,2 55403  69.9998  21.2786 0003428 269.8891  90.1912 15.69935654  4026,6737.218,91.724,361.393,356.774,0.0
55403.0,STARLINK-5597,PAYLOAD,2023-02-25 06:37:17,15.69949107,0.0003518,69.9994,20.5616,271.3911,88.6882,0.00029054,0.00034905,0.0,0 STARLINK-5597,1 55403U 23014N   23056.27589708  .00034905  00000-0  29054-3 0  9993,2 55403  69.9994  20.5616 0003518 271.3911  88.6882 15.69949107  5002,6737.18,91.723,361.415,356.674,0.0
55403.0,STARLINK-5597,PAYLOAD,2023-02-26 04:01:48,15.69952493,0.0003183,69.9987,18.0518,267.3005,92.7827,0.0001493,0.00017798,0.0,0 STARLINK-5597,1 55403U 23014N   23057.16792606  .00017798  00000-0  14930-3 0  9993,2 55403  69.9987  18.0518 0003183 267.3005  92.7827 15.69952493  4202,6737.17,91.723,361.179,356.89,0.0
55403.0,STARLINK-5597,PAYLOAD,2023-02-26 08:37:04,15.69949145,0.0003184,69.9984,17.5139,269.3018,90.7813,0.00011303,0.00013413,0.0,0 STARLINK-5597,1 55403U 23014N   23057.35907652  .00013413  00000-0  11303-3 0  9994,2 55403  69.9984  17.5139 0003184 269.3018  90.7813 15.69949145  4235,6737.179,91.723,361.19,356.899,0.0
55403.0,STARLINK-5597,PAYLOAD,2023-02-26 20:51:05,15.69937277,0.0002557,69.9998,16.0836,260.8569,99.2337,0.00011462,0.00013598,0.0,0 STARLINK-5597,1 55403U 23014N   23057.86881089  .00013598  00000-0  11462-3 0  9995,2 55403  69.9998  16.0836 0002557 260.8569  99.2337 15.69937277  5259,6737.213,91.723,360.801,357.356,0.0
55403.0,STARLINK-5597,PAYLOAD,2023-02-26 22:22:50,15.69939001,0.0002507,69.9998,15.9045,259.7973,100.294,0.00013007,0.00015464,0.0,0 STARLINK-5597,1 55403U 23014N   23057.93252742  .00015464  00000-0  13007-3 0  9992,2 55403  69.9998  15.9045 0002507 259.7973 100.2940 15.69939001  4327,6737.209,91.723,360.763,357.384,0.0
